NAVSTAR 77 (USA 289)    
1 43873U 18109A   23277.59848090 -.00000002  00000+0  00000+0 0  9999
2 43873  55.2025 131.1687 0026225 190.0896   7.6311  2.00569972 35234
